[ {"name": "STARLINK-33590", "line1": "1 64316U 25123AB  26169.65821059  .00001630  00000+0  14430-3 0  9997", "line2": "2 64316  70.0014 299.8290 0003262 270.7379  89.3406 14.98345214 56744"}, {"name": "STARLINK-11736 [DTC]", "line1": "1 64317U 25124A   26169.61236699  .00221312  00000+0  16790-2 0  9996", "line2": "2 64317  43.0011 141.1837 0000743 275.0876  84.9907 15.70892567 58703"}, {"name": "STARLINK-11673 [DTC]", "line1": "1 64318U 25124B   26169.33678604  .00129370  00000+0  99368-3 0  9996", "line2": "2 64318  43.0046 142.5438 0002962 276.0197  84.0333 15.70895080 58668"}, {"name": "STARLINK-11671 [DTC]", "line1": "1 64319U 25124C   26169.32616985  .00155774  00000+0  11944-2 0  9990", "line2": "2 64319  43.0002 142.4570 0002049 247.4556 112.6095 15.70848277 58663"}, {"name": "STARLINK-11594 [DTC]", "line1": "1 64320U 25124D   26169.61767902  .00187407  00000+0  14289-2 0  9993", "line2": "2 64320  42.9990 141.2250 0000692  15.8896 344.1993 15.70879476 58706"}, {"name": "STARLINK-11596 [DTC]", "line1": "1 64321U 25124E   26169.28913654  .00147879  00000+0  11340-2 0  9998", "line2": "2 64321  43.0015 143.0540 0001500 274.5926  85.4770 15.70871966 58654"}, {"name": "STARLINK-11747 [DTC]", "line1": "1 64322U 25124F   26169.40568009  .00190571  00000+0  14496-2 0  9995", "line2": "2 64322  43.0038 142.2026 0003364 285.4020  74.6476 15.70923045 58677"}, {"name": "STARLINK-11728 [DTC]", "line1": "1 64323U 25124G   26169.62816083  .00174747  00000+0  13373-2 0  9998", "line2": "2 64323  43.0026 140.4124 0001746 275.2730  84.7939 15.70833121 58717"}, {"name": "STARLINK-11696 [DTC]", "line1": "1 64324U 25124H   26169.32086060  .00129025  00000+0  98816-3 0  9995", "line2": "2 64324  43.0024 142.4122 0002665 279.8156  80.2411 15.70965920 58662"}, {"name": "STARLINK-11698 [DTC]", "line1": "1 64325U 25124J   26169.32707519  .00137805  00000+0  10586-2 0  9997", "line2": "2 64325  43.0018 142.4624 0002125 281.0611  79.0017 15.70865091 58661"}, {"name": "STARLINK-11678 [DTC]", "line1": "1 64326U 25124K   26169.75002315  .00713371  00000+0  25148-2 0  9995", "line2": "2 64326  42.9951 139.1745 0004376 167.2965 359.8968 15.86546679  6000"}, {"name": "STARLINK-11674 [DTC]", "line1": "1 64327U 25124L   26168.99763468  .00168970  00000+0  12903-2 0  9998", "line2": "2 64327  43.0009 144.2822 0001663 253.4602 106.6083 15.70902686 58619"}, {"name": "STARLINK-11707 [DTC]", "line1": "1 64328U 25124M   26169.66671295 -.00106699  00000+0 -83746-3 0  9996", "line2": "2 64328  43.0015 140.4746 0001638 268.5089 189.5756 15.70875207  5840"}, {"name": "STARLINK-11734 [DTC]", "line1": "1 64329U 25124N   26169.62285105  .00139100  00000+0  10677-2 0  9997", "line2": "2 64329  43.0008 140.3658 0000923 279.3260  80.7504 15.70880490 58718"}, {"name": "STARLINK-34252", "line1": "1 64330U 25124P   26167.58827181  .00013983  00000+0  51660-3 0  9996", "line2": "2 64330  43.0026 283.3656 0001873 280.9928  79.0713 15.27585647 56900"}, {"name": "STARLINK-34050", "line1": "1 64331U 25124Q   26169.34342154  .00012459  00000+0  46116-3 0  9992", "line2": "2 64331  43.0037 273.3116 0001569 265.5647  94.5026 15.27604107 58232"}, {"name": "STARLINK-33782", "line1": "1 64332U 25124R   26169.59339925  .00011020  00000+0  40901-3 0  9991", "line2": "2 64332  43.0061 271.7416 0001481  98.2858 261.8162 15.27610823 57212"}, {"name": "STARLINK-34207", "line1": "1 64333U 25124S   26169.34984490  .00021178  00000+0  77580-3 0  9996", "line2": "2 64333  43.0010 273.3627 0001864 267.0806  92.9832 15.27626434 57170"}, {"name": "STARLINK-34260", "line1": "1 64334U 25124T   26169.55371590  .00011815  00000+0  43801-3 0  9997", "line2": "2 64334  43.0038 272.3146 0002456 288.6208  71.4377 15.27593161 57209"}, {"name": "STARLINK-33855", "line1": "1 64335U 25124U   26169.58954502  .00016144  00000+0  59492-3 0  9994", "line2": "2 64335  43.0036 271.7137 0001661 264.8766  95.1896 15.27578083 57219"}, {"name": "STARLINK-34223", "line1": "1 64336U 25124V   26169.57845330  .00018132  00000+0  66617-3 0  9998", "line2": "2 64336  43.0003 268.1655 0001419 280.8320  79.2372 15.27611802 57257"}, {"name": "STARLINK-34216", "line1": "1 64337U 25124W   26169.57540895  .00008301  00000+0  31079-3 0  9998", "line2": "2 64337  42.9963 271.6028 0001890 275.3546  84.7090 15.27582203 57212"}, {"name": "STARLINK-34218", "line1": "1 64338U 25124X   26169.59002689  .00011647  00000+0  43195-3 0  9994", "line2": "2 64338  43.0059 268.2620 0002397 267.8310  92.2267 15.27591579 57259"}, {"name": "STARLINK-34017", "line1": "1 64339U 25124Y   26169.33956299  .00014623  00000+0  53936-3 0  9993", "line2": "2 64339  43.0051 273.2773 0003091 273.6010  86.4488 15.27608150 57176"}, {"name": "STARLINK-33977", "line1": "1 64344U 25126A   26169.63132536  .00003536  00000+0  30395-3 0  9999", "line2": "2 64344  70.0009 139.8837 0003264 265.1187  94.9600 14.98333992 57015"}, {"name": "STARLINK-34426", "line1": "1 64345U 25126B   26169.62697784  .00001874  00000+0  16480-3 0  9992", "line2": "2 64345  70.0005 139.8632 0003278 260.0551 100.0238 14.98335471 55804"}, {"name": "STARLINK-34437", "line1": "1 64346U 25126C   26169.65619782  .00003183  00000+0  27435-3 0  9995", "line2": "2 64346  70.0008 139.9678 0003692 264.2556  95.8182 14.98335626 55801"}, {"name": "STARLINK-34407", "line1": "1 64347U 25126D   26169.66053639  .00003168  00000+0  27312-3 0  9997", "line2": "2 64347  70.0008 139.9776 0003902 263.6488  96.4226 14.98336372 55807"}, {"name": "STARLINK-34274", "line1": "1 64348U 25126E   26169.27232397 -.00001000  00000+0 -75977-4 0  9991", "line2": "2 64348  70.0008 141.0375 0003855 259.2719 100.8006 14.98334391 55740"}, {"name": "STARLINK-34301", "line1": "1 64349U 25126F   26169.63115094  .00001888  00000+0  16592-3 0  9995", "line2": "2 64349  70.0007 139.8782 0003678 262.6100  97.4641 14.98336157 55807"}]