OBJECT_NAME,OBJECT_ID,EPOCH,MEAN_MOTION,ECCENTRICITY,INCLINATION,RA_OF_ASC_NODE,ARG_OF_PERICENTER,MEAN_ANOMALY,EPHEMERIS_TYPE,CLASSIFICATION_TYPE,NORAD_CAT_ID,ELEMENT_SET_NO,REV_AT_EPOCH,BSTAR,MEAN_MOTION_DOT,MEAN_MOTION_DDOT
STARLINK-33590,2025-123AB,2026-06-18T15:47:49.394976,14.98345214,.0003262,70.0014,299.8290,270.7379,89.3406,0,U,64316,999,5674,.1443E-3,.163E-4,0
STARLINK-11736 [DTC],2025-124A,2026-06-18T14:41:48.507936,15.70892567,.0000743,43.0011,141.1837,275.0876,84.9907,0,U,64317,999,5870,.1679E-2,.221312E-2,0
STARLINK-11673 [DTC],2025-124B,2026-06-18T08:04:58.313856,15.70895080,.0002962,43.0046,142.5438,276.0197,84.0333,0,U,64318,999,5866,.99368E-3,.12937E-2,0
STARLINK-11671 [DTC],2025-124C,2026-06-18T07:49:41.075040,15.70848277,.0002049,43.0002,142.4570,247.4556,112.6095,0,U,64319,999,5866,.11944E-2,.155774E-2,0
STARLINK-11594 [DTC],2025-124D,2026-06-18T14:49:27.467328,15.70879476,.0000692,42.9990,141.2250,15.8896,344.1993,0,U,64320,999,5870,.14289E-2,.187407E-2,0
STARLINK-11596 [DTC],2025-124E,2026-06-18T06:56:21.397056,15.70871966,.00015,43.0015,143.0540,274.5926,85.4770,0,U,64321,999,5865,.1134E-2,.147879E-2,0
STARLINK-11747 [DTC],2025-124F,2026-06-18T09:44:10.759776,15.70923045,.0003364,43.0038,142.2026,285.4020,74.6476,0,U,64322,999,5867,.14496E-2,.190571E-2,0
STARLINK-11728 [DTC],2025-124G,2026-06-18T15:04:33.095712,15.70833121,.0001746,43.0026,140.4124,275.2730,84.7939,0,U,64323,999,5871,.13373E-2,.174747E-2,0
STARLINK-11696 [DTC],2025-124H,2026-06-18T07:42:02.355840,15.70965920,.0002665,43.0024,142.4122,279.8156,80.2411,0,U,64324,999,5866,.98816E-3,.129025E-2,0
STARLINK-11698 [DTC],2025-124J,2026-06-18T07:50:59.296416,15.70865091,.0002125,43.0018,142.4624,281.0611,79.0017,0,U,64325,999,5866,.10586E-2,.137805E-2,0
STARLINK-11678 [DTC],2025-124K,2026-06-18T18:00:02.000160,15.86546679,.0004376,42.9951,139.1745,167.2965,359.8968,0,U,64326,999,600,.25148E-2,.713371E-2,0
STARLINK-11674 [DTC],2025-124L,2026-06-17T23:56:35.636352,15.70902686,.00016639,43.0009,144.2822,253.4602,106.6083,0,U,64327,999,5861,.12903198E-2,.16897E-2,0
STARLINK-11707 [DTC],2025-124M,2026-06-18T16:00:03.998880,15.70875207,.0001638,43.0015,140.4746,268.5089,189.5756,0,U,64328,999,584,-.83746E-3,-.106699E-2,0
STARLINK-11734 [DTC],2025-124N,2026-06-18T14:56:54.330720,15.70880490,.0000923,43.0008,140.3658,279.3260,80.7504,0,U,64329,999,5871,.10677E-2,.1391E-2,0
STARLINK-34252,2025-124P,2026-06-16T14:07:06.684384,15.27585647,.0001873,43.0026,283.3656,280.9928,79.0713,0,U,64330,999,5690,.5166E-3,.13983E-3,0
STARLINK-34050,2025-124Q,2026-06-18T08:14:31.621056,15.27604107,.0001569,43.0037,273.3116,265.5647,94.5026,0,U,64331,999,5823,.46116E-3,.12459E-3,0
STARLINK-33782,2025-124R,2026-06-18T14:14:29.695200,15.27610823,.0001481,43.0061,271.7416,98.2858,261.8162,0,U,64332,999,5721,.40901E-3,.1102E-3,0
STARLINK-34207,2025-124S,2026-06-18T08:23:46.599360,15.27626434,.0001864,43.0010,273.3627,267.0806,92.9832,0,U,64333,999,5717,.7758E-3,.21178E-3,0
STARLINK-34260,2025-124T,2026-06-18T13:17:21.053760,15.27593161,.0002456,43.0038,272.3146,288.6208,71.4377,0,U,64334,999,5720,.43801E-3,.11815E-3,0
STARLINK-33855,2025-124U,2026-06-18T14:08:56.689728,15.27578083,.0001661,43.0036,271.7137,264.8766,95.1896,0,U,64335,999,5721,.59492E-3,.16144E-3,0
STARLINK-34223,2025-124V,2026-06-18T13:52:58.365120,15.27611802,.0001419,43.0003,268.1655,280.8320,79.2372,0,U,64336,999,5725,.66617E-3,.18132E-3,0
STARLINK-34216,2025-124W,2026-06-18T13:48:35.333280,15.27582203,.000189,42.9963,271.6028,275.3546,84.7090,0,U,64337,999,5721,.31079E-3,.8301E-4,0
STARLINK-34218,2025-124X,2026-06-18T14:09:38.323296,15.27591579,.0002397,43.0059,268.2620,267.8310,92.2267,0,U,64338,999,5725,.43195E-3,.11647E-3,0
STARLINK-34017,2025-124Y,2026-06-18T08:08:58.242336,15.27608150,.0003091,43.0051,273.2773,273.6010,86.4488,0,U,64339,999,5717,.53936E-3,.14623E-3,0
STARLINK-33977,2025-126A,2026-06-18T15:09:06.511104,14.98333992,.0003264,70.0009,139.8837,265.1187,94.9600,0,U,64344,999,5701,.30395E-3,.3536E-4,0
STARLINK-34426,2025-126B,2026-06-18T15:02:50.885376,14.98335471,.0003278,70.0005,139.8632,260.0551,100.0238,0,U,64345,999,5580,.1648E-3,.1874E-4,0
STARLINK-34437,2025-126C,2026-06-18T15:44:55.491648,14.98335626,.0003692,70.0008,139.9678,264.2556,95.8182,0,U,64346,999,5580,.27435E-3,.3183E-4,0
STARLINK-34407,2025-126D,2026-06-18T15:51:10.344096,14.98336372,.0003902,70.0008,139.9776,263.6488,96.4226,0,U,64347,999,5580,.27312E-3,.3168E-4,0
STARLINK-34274,2025-126E,2026-06-18T06:32:08.791008,14.98334391,.0003855,70.0008,141.0375,259.2719,100.8006,0,U,64348,999,5574,-.75977E-4,-.1E-4,0
STARLINK-34301,2025-126F,2026-06-18T15:08:51.441216,14.98336157,.0003678,70.0007,139.8782,262.6100,97.4641,0,U,64349,999,5580,.16592E-3,.1888E-4,0
